ATLAS CENTAUR R/B       
1 06155U 72065B   26060.24753916  .00001653  00000+0  22812-3 0  9990
2 06155  35.0029 355.2261 0034362 298.4287  61.2953 14.77659101840010
SL-8 R/B                
1 08459U 75112B   26060.29506890  .00000256  00000+0  92622-4 0  9992
2 08459  74.0611  34.3536 0014632 130.9840 229.2583 14.38197872630664
SL-3 R/B                
1 10114U 77057B   26060.23644161  .00015387  00000+0  32556-3 0  9991
2 10114  97.5754 231.7876 0006504 320.2005  39.8765 15.45210944667021
SEASAT 1                
1 10967U 78064A   26060.05708327  .00000254  00000+0  10944-3 0  9995
2 10967 108.0132 107.3848 0002092 289.1649  70.9270 14.46152457505265
SL-14 R/B               
1 11267U 79011B   26060.19671101  .00000620  00000+0  58678-4 0  9990
2 11267  82.5219 104.6316 0017649  86.5160 273.8077 14.91896596527512
SL-8 R/B                
1 11574U 79089B   26060.28364407  .00000245  00000+0  81942-4 0  9997
2 11574  74.0674 106.6057 0017088 280.1142  79.8086 14.42344159434898
SL-14 R/B               
1 11672U 80005B   26060.20414758  .00000695  00000+0  67762-4 0  9996
2 11672  82.5160 315.2845 0015423 186.1888 173.9143 14.90918596475224
SL-8 R/B                
1 12139U 81003B   26060.12521812  .00017612  00000+0  45640-3 0  9992
2 12139  82.9401 297.9419 0262786 208.3837 150.2873 15.10593153313382
SL-3 R/B                
1 12465U 81046B   26060.21804517  .00014107  00000+0  33060-3 0  9996
2 12465  81.2320 299.9152 0020236  50.8806 309.4232 15.41735836437126
SL-3 R/B                
1 12904U 81103B   26060.28757218  .00006043  00000+0  26894-3 0  9997
2 12904  81.1565 223.2883 0012673 316.8293  43.1944 15.21251971971953
SL-3 R/B                
1 13068U 82013B   26060.29919954  .00006017  00000+0  26138-3 0  9990
2 13068  81.1768 170.6016 0022251 205.9584 154.0534 15.21912330403070
SL-3 R/B                
1 13154U 82039B   26060.24140207  .00003012  00000+0  18199-3 0  9996
2 13154  81.1581 225.7017 0029905 352.0237   8.0508 15.10021573380367
