CCSDS_OMM_VERS = 2.0
CREATION_DATE  = 
ORIGINATOR     = 

OBJECT_NAME    = ATLAS CENTAUR R/B
OBJECT_ID      = 1972-065B
CENTER_NAME    = EARTH
REF_FRAME      = TEME
TIME_SYSTEM    = UTC
MEAN_ELEMENT_THEORY = SGP/SGP4

EPOCH          = 2026-03-01T05:56:27.383424
MEAN_MOTION    = 14.77659101
ECCENTRICITY   = .00343624
INCLINATION    = 35.0029
RA_OF_ASC_NODE = 355.2261
ARG_OF_PERICENTER = 298.4287
MEAN_ANOMALY   = 61.2953

EPHEMERIS_TYPE = 0
CLASSIFICATION_TYPE = U
NORAD_CAT_ID   = 6155
ELEMENT_SET_NO = 999
REV_AT_EPOCH   = 84001
BSTAR          = .22812348E-3
MEAN_MOTION_DOT = .1653E-4
MEAN_MOTION_DDOT = 0

CCSDS_OMM_VERS = 2.0
CREATION_DATE  = 
ORIGINATOR     = 

OBJECT_NAME    = SL-8 R/B
OBJECT_ID      = 1975-112B
CENTER_NAME    = EARTH
REF_FRAME      = TEME
TIME_SYSTEM    = UTC
MEAN_ELEMENT_THEORY = SGP/SGP4

EPOCH          = 2026-03-01T07:04:53.952960
MEAN_MOTION    = 14.38197872
ECCENTRICITY   = .00146325
INCLINATION    = 74.0611
RA_OF_ASC_NODE = 34.3536
ARG_OF_PERICENTER = 130.9840
MEAN_ANOMALY   = 229.2583

EPHEMERIS_TYPE = 0
CLASSIFICATION_TYPE = U
NORAD_CAT_ID   = 8459
ELEMENT_SET_NO = 999
REV_AT_EPOCH   = 63066
BSTAR          = .92622104E-4
MEAN_MOTION_DOT = .256E-5
MEAN_MOTION_DDOT = 0

CCSDS_OMM_VERS = 2.0
CREATION_DATE  = 
ORIGINATOR     = 

OBJECT_NAME    = SL-3 R/B
OBJECT_ID      = 1977-057B
CENTER_NAME    = EARTH
REF_FRAME      = TEME
TIME_SYSTEM    = UTC
MEAN_ELEMENT_THEORY = SGP/SGP4

EPOCH          = 2026-03-01T05:40:28.555104
MEAN_MOTION    = 15.45210944
ECCENTRICITY   = .00065049
INCLINATION    = 97.5754
RA_OF_ASC_NODE = 231.7876
ARG_OF_PERICENTER = 320.2005
MEAN_ANOMALY   = 39.8765

EPHEMERIS_TYPE = 0
CLASSIFICATION_TYPE = U
NORAD_CAT_ID   = 10114
ELEMENT_SET_NO = 999
REV_AT_EPOCH   = 66702
BSTAR          = .3255589E-3
MEAN_MOTION_DOT = .15387E-3
MEAN_MOTION_DDOT = 0

CCSDS_OMM_VERS = 2.0
CREATION_DATE  = 
ORIGINATOR     = 

OBJECT_NAME    = SEASAT 1
OBJECT_ID      = 1978-064A
CENTER_NAME    = EARTH
REF_FRAME      = TEME
TIME_SYSTEM    = UTC
MEAN_ELEMENT_THEORY = SGP/SGP4

EPOCH          = 2026-03-01T01:22:11.994528
MEAN_MOTION    = 14.46152457
ECCENTRICITY   = .00020922
INCLINATION    = 108.0132
RA_OF_ASC_NODE = 107.3848
ARG_OF_PERICENTER = 289.1649
MEAN_ANOMALY   = 70.9270

EPHEMERIS_TYPE = 0
CLASSIFICATION_TYPE = U
NORAD_CAT_ID   = 10967
ELEMENT_SET_NO = 999
REV_AT_EPOCH   = 50526
BSTAR          = .1094442E-3
MEAN_MOTION_DOT = .254E-5
MEAN_MOTION_DDOT = 0

CCSDS_OMM_VERS = 2.0
CREATION_DATE  = 
ORIGINATOR     = 

OBJECT_NAME    = SL-14 R/B
OBJECT_ID      = 1979-011B
CENTER_NAME    = EARTH
REF_FRAME      = TEME
TIME_SYSTEM    = UTC
MEAN_ELEMENT_THEORY = SGP/SGP4

EPOCH          = 2026-03-01T04:43:15.831264
MEAN_MOTION    = 14.91896596
ECCENTRICITY   = .00176491
INCLINATION    = 82.5219
RA_OF_ASC_NODE = 104.6316
ARG_OF_PERICENTER = 86.5160
MEAN_ANOMALY   = 273.8077

EPHEMERIS_TYPE = 0
CLASSIFICATION_TYPE = U
NORAD_CAT_ID   = 11267
ELEMENT_SET_NO = 999
REV_AT_EPOCH   = 52751
BSTAR          = .58677936E-4
MEAN_MOTION_DOT = .62E-5
MEAN_MOTION_DDOT = 0

CCSDS_OMM_VERS = 2.0
CREATION_DATE  = 
ORIGINATOR     = 

OBJECT_NAME    = SL-8 R/B
OBJECT_ID      = 1979-089B
CENTER_NAME    = EARTH
REF_FRAME      = TEME
TIME_SYSTEM    = UTC
MEAN_ELEMENT_THEORY = SGP/SGP4

EPOCH          = 2026-03-01T06:48:26.847648
MEAN_MOTION    = 14.42344159
ECCENTRICITY   = .00170889
INCLINATION    = 74.0674
RA_OF_ASC_NODE = 106.6057
ARG_OF_PERICENTER = 280.1142
MEAN_ANOMALY   = 79.8086

EPHEMERIS_TYPE = 0
CLASSIFICATION_TYPE = U
NORAD_CAT_ID   = 11574
ELEMENT_SET_NO = 999
REV_AT_EPOCH   = 43489
BSTAR          = .81941558E-4
MEAN_MOTION_DOT = .245E-5
MEAN_MOTION_DDOT = 0

CCSDS_OMM_VERS = 2.0
CREATION_DATE  = 
ORIGINATOR     = 

OBJECT_NAME    = SL-14 R/B
OBJECT_ID      = 1980-005B
CENTER_NAME    = EARTH
REF_FRAME      = TEME
TIME_SYSTEM    = UTC
MEAN_ELEMENT_THEORY = SGP/SGP4

EPOCH          = 2026-03-01T04:53:58.350912
MEAN_MOTION    = 14.90918596
ECCENTRICITY   = .00154233
INCLINATION    = 82.5160
RA_OF_ASC_NODE = 315.2845
ARG_OF_PERICENTER = 186.1888
MEAN_ANOMALY   = 173.9143

EPHEMERIS_TYPE = 0
CLASSIFICATION_TYPE = U
NORAD_CAT_ID   = 11672
ELEMENT_SET_NO = 999
REV_AT_EPOCH   = 47522
BSTAR          = .67762424E-4
MEAN_MOTION_DOT = .695E-5
MEAN_MOTION_DDOT = 0

CCSDS_OMM_VERS = 2.0
CREATION_DATE  = 
ORIGINATOR     = 

OBJECT_NAME    = SL-8 R/B
OBJECT_ID      = 1981-003B
CENTER_NAME    = EARTH
REF_FRAME      = TEME
TIME_SYSTEM    = UTC
MEAN_ELEMENT_THEORY = SGP/SGP4

EPOCH          = 2026-03-01T03:00:18.845568
MEAN_MOTION    = 15.10593153
ECCENTRICITY   = .02627862
INCLINATION    = 82.9401
RA_OF_ASC_NODE = 297.9419
ARG_OF_PERICENTER = 208.3837
MEAN_ANOMALY   = 150.2873

EPHEMERIS_TYPE = 0
CLASSIFICATION_TYPE = U
NORAD_CAT_ID   = 12139
ELEMENT_SET_NO = 999
REV_AT_EPOCH   = 31338
BSTAR          = .45639678E-3
MEAN_MOTION_DOT = .17612E-3
MEAN_MOTION_DDOT = 0

CCSDS_OMM_VERS = 2.0
CREATION_DATE  = 
ORIGINATOR     = 

OBJECT_NAME    = SL-3 R/B
OBJECT_ID      = 1981-046B
CENTER_NAME    = EARTH
REF_FRAME      = TEME
TIME_SYSTEM    = UTC
MEAN_ELEMENT_THEORY = SGP/SGP4

EPOCH          = 2026-03-01T05:13:59.102688
MEAN_MOTION    = 15.41735836
ECCENTRICITY   = .00202366
INCLINATION    = 81.2320
RA_OF_ASC_NODE = 299.9152
ARG_OF_PERICENTER = 50.8806
MEAN_ANOMALY   = 309.4232

EPHEMERIS_TYPE = 0
CLASSIFICATION_TYPE = U
NORAD_CAT_ID   = 12465
ELEMENT_SET_NO = 999
REV_AT_EPOCH   = 43712
BSTAR          = .3306018E-3
MEAN_MOTION_DOT = .14107E-3
MEAN_MOTION_DDOT = 0

CCSDS_OMM_VERS = 2.0
CREATION_DATE  = 
ORIGINATOR     = 

OBJECT_NAME    = SL-3 R/B
OBJECT_ID      = 1981-103B
CENTER_NAME    = EARTH
REF_FRAME      = TEME
TIME_SYSTEM    = UTC
MEAN_ELEMENT_THEORY = SGP/SGP4

EPOCH          = 2026-03-01T06:54:06.236352
MEAN_MOTION    = 15.21251971
ECCENTRICITY   = .00126737
INCLINATION    = 81.1565
RA_OF_ASC_NODE = 223.2883
ARG_OF_PERICENTER = 316.8293
MEAN_ANOMALY   = 43.1944

EPHEMERIS_TYPE = 0
CLASSIFICATION_TYPE = U
NORAD_CAT_ID   = 12904
ELEMENT_SET_NO = 999
REV_AT_EPOCH   = 97195
BSTAR          = .26893857E-3
MEAN_MOTION_DOT = .6043E-4
MEAN_MOTION_DDOT = 0

CCSDS_OMM_VERS = 2.0
CREATION_DATE  = 
ORIGINATOR     = 

OBJECT_NAME    = SL-3 R/B
OBJECT_ID      = 1982-013B
CENTER_NAME    = EARTH
REF_FRAME      = TEME
TIME_SYSTEM    = UTC
MEAN_ELEMENT_THEORY = SGP/SGP4

EPOCH          = 2026-03-01T07:10:50.840256
MEAN_MOTION    = 15.21912330
ECCENTRICITY   = .00222518
INCLINATION    = 81.1768
RA_OF_ASC_NODE = 170.6016
ARG_OF_PERICENTER = 205.9584
MEAN_ANOMALY   = 154.0534

EPHEMERIS_TYPE = 0
CLASSIFICATION_TYPE = U
NORAD_CAT_ID   = 13068
ELEMENT_SET_NO = 999
REV_AT_EPOCH   = 40307
BSTAR          = .26137963E-3
MEAN_MOTION_DOT = .6017E-4
MEAN_MOTION_DDOT = 0

CCSDS_OMM_VERS = 2.0
CREATION_DATE  = 
ORIGINATOR     = 

OBJECT_NAME    = SL-3 R/B
OBJECT_ID      = 1982-039B
CENTER_NAME    = EARTH
REF_FRAME      = TEME
TIME_SYSTEM    = UTC
MEAN_ELEMENT_THEORY = SGP/SGP4

EPOCH          = 2026-03-01T05:47:37.138848
MEAN_MOTION    = 15.10021573
ECCENTRICITY   = .00299056
INCLINATION    = 81.1581
RA_OF_ASC_NODE = 225.7017
ARG_OF_PERICENTER = 352.0237
MEAN_ANOMALY   = 8.0508

EPHEMERIS_TYPE = 0
CLASSIFICATION_TYPE = U
NORAD_CAT_ID   = 13154
ELEMENT_SET_NO = 999
REV_AT_EPOCH   = 38036
BSTAR          = .18199014E-3
MEAN_MOTION_DOT = .3012E-4
MEAN_MOTION_DDOT = 0

